OBJECT_NAME,OBJECT_ID,EPOCH,MEAN_MOTION,ECCENTRICITY,INCLINATION,RA_OF_ASC_NODE,ARG_OF_PERICENTER,MEAN_ANOMALY,EPHEMERIS_TYPE,CLASSIFICATION_TYPE,NORAD_CAT_ID,ELEMENT_SET_NO,REV_AT_EPOCH,BSTAR,MEAN_MOTION_DOT,MEAN_MOTION_DDOT
LEMUR-2-FINNIAN,2025-276DX,2026-07-17T10:08:06.796032,15.00631674,.00074246,97.5344,268.4747,350.8943,9.2145,0,U,66782,999,2453,.11407502E-3,.1385E-4,0
LEMUR-2-STARLIGHT,2025-276DY,2026-07-17T11:18:58.786272,14.99372034,.0014733,97.5234,268.0758,40.4697,319.7620,0,U,66783,999,3473,.3034887E-3,.3664E-4,0
LEMUR-2-TARTIFLETTE,2025-276DZ,2026-07-16T17:39:35.767296,14.99350642,.00139202,97.5233,267.3730,51.1069,309.1394,0,U,66784,999,3462,.28560617E-3,.3442E-4,0
LEMUR-2-VUKASIN,2025-276EA,2026-07-17T15:19:28.478784,15.00558237,.00026615,97.5213,268.6079,47.2173,312.9274,0,U,66785,999,3471,.17874957E-3,.2198E-4,0
LEMUR-2-HOTSPUR-TOM,2025-276EB,2026-07-17T14:21:05.022720,14.99254921,.00137109,97.5214,268.1791,40.2029,320.0206,0,U,66786,999,3468,.23112813E-3,.2767E-4,0
LEMUR-2-MYRA,2025-276EC,2026-07-17T00:05:05.406720,15.00601403,.00186724,97.5220,267.9128,48.8003,311.4828,0,U,66787,999,3468,.26550276E-3,.3308E-4,0
LEMUR-2 FIKRETDENGIZ,2026-004A,2026-07-16T23:35:09.729600,14.88523570,.00100761,97.8028,196.0882,50.7070,309.5038,0,U,67363,999,2771,.18209536E-3,.1639E-4,0
TWILIGHT-1 OBJECT B,2026-004B,2026-07-17T10:10:59.058624,14.87797460,.000958,97.8076,196.5227,39.4014,320.7898,0,U,67364,999,2778,.98536252E-4,.846E-5,0
LEMUR-2-MARIO-SOUSA,2026-004C,2026-07-17T10:23:18.002400,14.88737834,.00096828,97.8002,196.5266,50.9541,309.2537,0,U,67365,999,2779,.21412002E-3,.1948E-4,0
LEMUR-2-SONNENBLUME,2026-004E,2026-07-17T10:28:00.381792,14.88459429,.00092755,97.8002,196.5014,51.9713,308.2340,0,U,67367,999,2779,.1444683E-3,.1287E-4,0
LEMUR-2-WOBLER,2026-004F,2026-07-17T05:21:41.175936,14.88706069,.00093612,97.8052,196.4452,44.1369,316.0594,0,U,67368,999,2776,.20858033E-3,.1894E-4,0
LEMUR-2-GRAM-E-SUE,2026-004H,2026-07-16T22:43:23.486304,14.88593718,.00084893,97.7987,196.0361,56.2455,303.9570,0,U,67370,999,2772,.13514085E-3,.1204E-4,0
LEMUR-2-KATIE,2026-004AA,2026-07-16T23:15:17.492544,14.90260082,.00033398,97.8044,196.6155,29.9962,330.1447,0,U,67387,999,2774,.21596188E-3,.2041E-4,0
LEMUR-2-HCS-BAZUS,2026-004AB,2026-07-17T05:39:39.137760,14.90269255,.00028432,97.8040,196.8571,28.4863,331.6510,0,U,67388,999,2778,.16290249E-3,.1526E-4,0
